{"fetched_at":"2026-03-30T06:02:59Z","count":15439,"tles":[{"name":"STARLINK-3314","line1":"1 50851U 22001BA  26087.72373850 -.00000247  00000+0  25618-5 0  9992","line2":"2 50851  53.2168  93.5990 0001413  88.2197 271.8957 15.08840542233144","category":"Starlink"}]}